STARLINK-6226           
1 56544U 23065AT  26003.95479391 -.00000123  00000+0  59685-5 0  9992
2 56544  43.0028 214.5459 0001179 268.6070  91.4637 15.02537100146746
STARLINK-6086           
1 56545U 23065AU  26003.98586865  .00000242  00000+0  32985-4 0  9995
2 56545  43.0038 214.7651 0001052 267.3033  92.7689 15.02536056146749
STARLINK-6187           
1 56546U 23065AV  26004.25955720 -.00000584  00000+0 -28176-4 0  9995
2 56546  43.0022 213.3796 0001092 266.6553  93.4165 15.02530877146787
STARLINK-6291           
1 56547U 23065AW  26003.95257533 -.00000215  00000+0 -86213-6 0  9998
2 56547  43.0030 214.5216 0000947 268.7685  91.3049 15.02534143146748
STARLINK-6244           
1 56548U 23065AX  26004.25513065  .00003349  00000+0  26293-3 0  9996
2 56548  43.0041 213.3453 0000383 277.9507  82.1292 15.02521659146780
STARLINK-6263           
1 56549U 23065AY  26004.30606332 -.00000265  00000+0 -45629-5 0  9995
2 56549  43.0014 212.8677 0000394 274.0982  85.9815 15.02530409146796
STARLINK-6255           
1 56550U 23065AZ  26003.98255419 -.00000117  00000+0  63900-5 0  9993
2 56550  43.0023 214.7415 0001118 272.4524  87.6190 15.02533908146745
STARLINK-6199           
1 56551U 23065BA  26003.96922100 -.00000014  00000+0  14042-4 0  9998
2 56551  43.0038 214.6391 0001041 266.2126  93.8597 15.02535561146745
STARLINK-5802           
1 56552U 23065BB  26003.97587868  .00000994  00000+0  88605-4 0  9990
2 56552  43.0032 214.6902 0001348 263.9714  96.0974 15.02541454146747
STARLINK-6074           
1 56553U 23065BC  26003.96588647  .00000723  00000+0  68610-4 0  9990
2 56553  43.0041 214.6104 0001373 263.5774  96.4912 15.02537094146743
STARLINK-6295           
1 56554U 23065BD  26004.30271979  .00000257  00000+0  34106-4 0  9992
2 56554  43.0039 212.8438 0001275 264.5268  95.5429 15.02536615146797
STARLINK-6252           
1 56555U 23065BE  26003.89275388  .00000092  00000+0  21921-4 0  9992
2 56555  43.0040 214.9257 0001263 268.1296  91.9401 15.02535708146736
STARLINK-5302           
1 56556U 23065BF  26003.96257247  .00000932  00000+0  84073-4 0  9995
2 56556  43.0014 214.5889 0000377 251.0808 108.9993 15.02535691146747
STARLINK-6265           
1 56557U 23065BG  26003.95590226  .00001541  00000+0  12911-3 0  9990
2 56557  43.0051 214.5339 0001271 270.2489  89.8208 15.02534756146748
STARLINK-6286           
1 56558U 23065BH  26004.25846067 -.00000328  00000+0 -92132-5 0  9991
2 56558  43.0053 213.3571 0001868 266.0830  93.9799 15.02524144146786
STARLINK-30122          
1 56688U 23067A   26004.13992332  .00001333  00000+0  11373-3 0  9992
2 56688  43.0032 265.7289 0001144 273.6896  86.3816 15.02538818146012
