[{"OBJECT_NAME":"STARLINK-6226","OBJECT_ID":"2023-065AT","EPOCH":"2026-01-03T22:54:54.193824","MEAN_MOTION":15.025371,"ECCENTRICITY":0.0001179,"INCLINATION":43.0028,"RA_OF_ASC_NODE":214.5459,"ARG_OF_PERICENTER":268.607,"MEAN_ANOMALY":91.4637,"EPHEMERIS_TYPE":0,"CLASSIFICATION_TYPE":"U","NORAD_CAT_ID":56544,"ELEMENT_SET_NO":999,"REV_AT_EPOCH":14674,"BSTAR":5.9685e-6,"MEAN_MOTION_DOT":-1.23e-6,"MEAN_MOTION_DDOT":0},{"OBJECT_NAME":"STARLINK-6086","OBJECT_ID":"2023-065AU","EPOCH":"2026-01-03T23:39:39.051360","MEAN_MOTION":15.02536056,"ECCENTRICITY":0.00010521,"INCLINATION":43.0038,"RA_OF_ASC_NODE":214.7651,"ARG_OF_PERICENTER":267.3033,"MEAN_ANOMALY":92.7689,"EPHEMERIS_TYPE":0,"CLASSIFICATION_TYPE":"U","NORAD_CAT_ID":56545,"ELEMENT_SET_NO":999,"REV_AT_EPOCH":14674,"BSTAR":3.2984921e-5,"MEAN_MOTION_DOT":2.42e-6,"MEAN_MOTION_DDOT":0},{"OBJECT_NAME":"STARLINK-6187","OBJECT_ID":"2023-065AV","EPOCH":"2026-01-04T06:13:45.742944","MEAN_MOTION":15.02530877,"ECCENTRICITY":0.00010922,"INCLINATION":43.0022,"RA_OF_ASC_NODE":213.3796,"ARG_OF_PERICENTER":266.6553,"MEAN_ANOMALY":93.4165,"EPHEMERIS_TYPE":0,"CLASSIFICATION_TYPE":"U","NORAD_CAT_ID":56546,"ELEMENT_SET_NO":999,"REV_AT_EPOCH":14678,"BSTAR":-2.8176037e-5,"MEAN_MOTION_DOT":-5.84e-6,"MEAN_MOTION_DDOT":0},{"OBJECT_NAME":"STARLINK-6291","OBJECT_ID":"2023-065AW","EPOCH":"2026-01-03T22:51:42.508512","MEAN_MOTION":15.02534143,"ECCENTRICITY":9.47e-5,"INCLINATION":43.003,"RA_OF_ASC_NODE":214.5216,"ARG_OF_PERICENTER":268.7685,"MEAN_ANOMALY":91.3049,"EPHEMERIS_TYPE":0,"CLASSIFICATION_TYPE":"U","NORAD_CAT_ID":56547,"ELEMENT_SET_NO":999,"REV_AT_EPOCH":14674,"BSTAR":-8.6213e-7,"MEAN_MOTION_DOT":-2.15e-6,"MEAN_MOTION_DDOT":0},{"OBJECT_NAME":"STARLINK-6244","OBJECT_ID":"2023-065AX","EPOCH":"2026-01-04T06:07:23.288160","MEAN_MOTION":15.02521659,"ECCENTRICITY":3.827e-5,"INCLINATION":43.0041,"RA_OF_ASC_NODE":213.3453,"ARG_OF_PERICENTER":277.9507,"MEAN_ANOMALY":82.1292,"EPHEMERIS_TYPE":0,"CLASSIFICATION_TYPE":"U","NORAD_CAT_ID":56548,"ELEMENT_SET_NO":999,"REV_AT_EPOCH":14678,"BSTAR":0.00026293253,"MEAN_MOTION_DOT":3.349e-5,"MEAN_MOTION_DDOT":0},{"OBJECT_NAME":"STARLINK-6263","OBJECT_ID":"2023-065AY","EPOCH":"2026-01-04T07:20:43.870848","MEAN_MOTION":15.02530409,"ECCENTRICITY":3.938e-5,"INCLINATION":43.0014,"RA_OF_ASC_NODE":212.8677,"ARG_OF_PERICENTER":274.0982,"MEAN_ANOMALY":85.9815,"EPHEMERIS_TYPE":0,"CLASSIFICATION_TYPE":"U","NORAD_CAT_ID":56549,"ELEMENT_SET_NO":999,"REV_AT_EPOCH":14679,"BSTAR":-4.562916e-6,"MEAN_MOTION_DOT":-2.65e-6,"MEAN_MOTION_DDOT":0},{"OBJECT_NAME":"STARLINK-6255","OBJECT_ID":"2023-065AZ","EPOCH":"2026-01-03T23:34:52.682016","MEAN_MOTION":15.02533908,"ECCENTRICITY":0.00011187,"INCLINATION":43.0023,"RA_OF_ASC_NODE":214.7415,"ARG_OF_PERICENTER":272.4524,"MEAN_ANOMALY":87.619,"EPHEMERIS_TYPE":0,"CLASSIFICATION_TYPE":"U","NORAD_CAT_ID":56550,"ELEMENT_SET_NO":999,"REV_AT_EPOCH":14674,"BSTAR":6.39002e-6,"MEAN_MOTION_DOT":-1.17e-6,"MEAN_MOTION_DDOT":0},{"OBJECT_NAME":"STARLINK-6199","OBJECT_ID":"2023-065BA","EPOCH":"2026-01-03T23:15:40.694400","MEAN_MOTION":15.02535561,"ECCENTRICITY":0.0001041,"INCLINATION":43.0038,"RA_OF_ASC_NODE":214.6391,"ARG_OF_PERICENTER":266.2126,"MEAN_ANOMALY":93.8597,"EPHEMERIS_TYPE":0,"CLASSIFICATION_TYPE":"U","NORAD_CAT_ID":56551,"ELEMENT_SET_NO":999,"REV_AT_EPOCH":14674,"BSTAR":1.4042e-5,"MEAN_MOTION_DOT":-1.4e-7,"MEAN_MOTION_DDOT":0},{"OBJECT_NAME":"STARLINK-5802","OBJECT_ID":"2023-065BB","EPOCH":"2026-01-03T23:25:15.917952","MEAN_MOTION":15.02541454,"ECCENTRICITY":0.0001348,"INCLINATION":43.0032,"RA_OF_ASC_NODE":214.6902,"ARG_OF_PERICENTER":263.9714,"MEAN_ANOMALY":96.0974,"EPHEMERIS_TYPE":0,"CLASSIFICATION_TYPE":"U","NORAD_CAT_ID":56552,"ELEMENT_SET_NO":999,"REV_AT_EPOCH":14674,"BSTAR":8.860463e-5,"MEAN_MOTION_DOT":9.94e-6,"MEAN_MOTION_DDOT":0},{"OBJECT_NAME":"STARLINK-6074","OBJECT_ID":"2023-065BC","EPOCH":"2026-01-03T23:10:52.591008","MEAN_MOTION":15.02537094,"ECCENTRICITY":0.0001373,"INCLINATION":43.0041,"RA_OF_ASC_NODE":214.6104,"ARG_OF_PERICENTER":263.5774,"MEAN_ANOMALY":96.4912,"EPHEMERIS_TYPE":0,"CLASSIFICATION_TYPE":"U","NORAD_CAT_ID":56553,"ELEMENT_SET_NO":999,"REV_AT_EPOCH":14674,"BSTAR":6.861e-5,"MEAN_MOTION_DOT":7.23e-6,"MEAN_MOTION_DDOT":0},{"OBJECT_NAME":"STARLINK-6295","OBJECT_ID":"2023-065BD","EPOCH":"2026-01-04T07:15:54.990720","MEAN_MOTION":15.02536615,"ECCENTRICITY":0.00012754,"INCLINATION":43.0039,"RA_OF_ASC_NODE":212.8438,"ARG_OF_PERICENTER":264.5268,"MEAN_ANOMALY":95.5429,"EPHEMERIS_TYPE":0,"CLASSIFICATION_TYPE":"U","NORAD_CAT_ID":56554,"ELEMENT_SET_NO":999,"REV_AT_EPOCH":14679,"BSTAR":3.4105751e-5,"MEAN_MOTION_DOT":2.57e-6,"MEAN_MOTION_DDOT":0},{"OBJECT_NAME":"STARLINK-6252","OBJECT_ID":"2023-065BE","EPOCH":"2026-01-03T21:25:33.935232","MEAN_MOTION":15.02535708,"ECCENTRICITY":0.0001263,"INCLINATION":43.004,"RA_OF_ASC_NODE":214.9257,"ARG_OF_PERICENTER":268.1296,"MEAN_ANOMALY":91.9401,"EPHEMERIS_TYPE":0,"CLASSIFICATION_TYPE":"U","NORAD_CAT_ID":56555,"ELEMENT_SET_NO":999,"REV_AT_EPOCH":14673,"BSTAR":2.1921e-5,"MEAN_MOTION_DOT":9.2e-7,"MEAN_MOTION_DDOT":0},{"OBJECT_NAME":"STARLINK-5302","OBJECT_ID":"2023-065BF","EPOCH":"2026-01-03T23:06:06.261408","MEAN_MOTION":15.02535691,"ECCENTRICITY":3.77e-5,"INCLINATION":43.0014,"RA_OF_ASC_NODE":214.5889,"ARG_OF_PERICENTER":251.0808,"MEAN_ANOMALY":108.9993,"EPHEMERIS_TYPE":0,"CLASSIFICATION_TYPE":"U","NORAD_CAT_ID":56556,"ELEMENT_SET_NO":999,"REV_AT_EPOCH":14674,"BSTAR":8.4073e-5,"MEAN_MOTION_DOT":9.32e-6,"MEAN_MOTION_DDOT":0},{"OBJECT_NAME":"STARLINK-6265","OBJECT_ID":"2023-065BG","EPOCH":"2026-01-03T22:56:29.955264","MEAN_MOTION":15.02534756,"ECCENTRICITY":0.0001271,"INCLINATION":43.0051,"RA_OF_ASC_NODE":214.5339,"ARG_OF_PERICENTER":270.2489,"MEAN_ANOMALY":89.8208,"EPHEMERIS_TYPE":0,"CLASSIFICATION_TYPE":"U","NORAD_CAT_ID":56557,"ELEMENT_SET_NO":999,"REV_AT_EPOCH":14674,"BSTAR":0.00012911,"MEAN_MOTION_DOT":1.541e-5,"MEAN_MOTION_DDOT":0},{"OBJECT_NAME":"STARLINK-6286","OBJECT_ID":"2023-065BH","EPOCH":"2026-01-04T06:12:11.002752","MEAN_MOTION":15.02524144,"ECCENTRICITY":0.00018676,"INCLINATION":43.0053,"RA_OF_ASC_NODE":213.3571,"ARG_OF_PERICENTER":266.083,"MEAN_ANOMALY":93.9799,"EPHEMERIS_TYPE":0,"CLASSIFICATION_TYPE":"U","NORAD_CAT_ID":56558,"ELEMENT_SET_NO":999,"REV_AT_EPOCH":14678,"BSTAR":-9.213191e-6,"MEAN_MOTION_DOT":-3.28e-6,"MEAN_MOTION_DDOT":0},{"OBJECT_NAME":"STARLINK-30122","OBJECT_ID":"2023-067A","EPOCH":"2026-01-04T03:21:29.374848","MEAN_MOTION":15.02538818,"ECCENTRICITY":0.00011448,"INCLINATION":43.0032,"RA_OF_ASC_NODE":265.7289,"ARG_OF_PERICENTER":273.6896,"MEAN_ANOMALY":86.3816,"EPHEMERIS_TYPE":0,"CLASSIFICATION_TYPE":"U","NORAD_CAT_ID":56688,"ELEMENT_SET_NO":999,"REV_AT_EPOCH":14601,"BSTAR":0.00011372734,"MEAN_MOTION_DOT":1.333e-5,"MEAN_MOTION_DDOT":0}]
